INTELSAT 902 (IS-902)   
1 26900U 01039A   26187.24557654 -.00000272  00000+0  00000+0 0  9992
2 26900   6.1639  71.5498 0004285  32.2428 218.7251  1.00270531 90888
INTELSAT 904 (IS-904)   
1 27380U 02007A   26187.57647713 -.00000214  00000+0  00000+0 0  9999
2 27380   6.9651  68.9503 0005729  19.6285  12.0291  1.00273349 51969
DIRECTV 5 (TEMPO 1)     
1 27426U 02023A   26187.69548398 -.00000045  00000+0  00000+0 0  9992
2 27426   4.9243  75.0690 0003177  31.7548 318.1225  1.00271110 88313
INTELSAT 905 (IS-905)   
1 27438U 02027A   26187.76141411  .00000105  00000+0  00000+0 0  9998
2 27438   6.7993  69.5625 0003744  39.8719 312.2122  1.00271819 51556
GALAXY 3C (G-3C)        
1 27445U 02030A   26187.84108985 -.00000140  00000+0  00000+0 0  9998
2 27445   3.7806  77.7225 0001694  34.3965  20.6681  1.00271338 46691
INTELSAT 906 (IS-906)   
1 27513U 02041A   26187.80126434  .00000025  00000+0  00000+0 0  9992
2 27513   5.8510  72.6800 0004022  14.8420 189.8386  1.00271432 87221
GALAXY 13 (HORIZONS-1)  
1 27954U 03044A   26187.75890078  .00000147  00000+0  00000+0 0  9996
2 27954   1.4688  83.6138 0001740  21.2255 303.0946  1.00274154 46766
INTELSAT 10-02          
1 28358U 04022A   26187.36071100  .00000004  00000+0  00000+0 0  9998
2 28358   0.0428 259.5941 0000467 299.9477 213.6568  1.00274350 80743
DIRECTV 8               
1 28659U 05019A   26187.62243206  .00000016  00000+0  00000+0 0  9999
2 28659   0.0191  44.6715 0003172  73.2298 271.7271  1.00271795 77265
GALAXY 28 (G-28)        
1 28702U 05022A   26187.85445611 -.00000187  00000+0  00000+0 0  9991
2 28702   3.3461  78.6940 0002369  27.0325  99.6103  1.00270520 52171
GALAXY 16 (G-16)        
1 29236U 06023A   26187.84030985 -.00000112  00000+0  00000+0 0  9997
2 29236   0.0302 134.7342 0002544 334.7515  18.8390  1.00270827 73170
DIRECTV 9S              
1 29494U 06043A   26187.83987652 -.00000100  00000+0  00000+0 0  9993
2 29494   2.4682  80.6710 0005186  28.2696  17.0344  1.00271269 51583
GALAXY 17 (G-17)        
1 31307U 07016B   26187.84308318 -.00000193  00000+0  00000+0 0  9999
2 31307   3.0181  79.6565 0003765  24.5113  39.1362  1.00271960 70001
INTELSAT 11 (IS-11)     
1 32253U 07044B   26187.72523222  .00000055  00000+0  00000+0 0  9997
2 32253   3.6129  78.4370 0003774  94.8686  52.3050  0.99049194 68643
HORIZONS-2              
1 32388U 07063B   26187.84524986 -.00000240  00000+0  00000+0 0  9995
2 32388   2.6495  80.3905 0003833  12.9163  62.0112  1.00272485 68012
DIRECTV 11              
1 32729U 08013A   26187.62633208 -.00000111  00000+0  00000+0 0  9991
2 32729   0.0429 214.4667 0000241 227.3670 329.0652  1.00269705 45785
GALAXY 18 (G-18)        
1 32951U 08024A   26187.76418747  .00000040  00000+0  00000+0 0  9994
2 32951   0.0166 295.8171 0002939 179.6454 321.3889  1.00272470 46048
GALAXY 19 (G-19)        
1 33376U 08045A   26187.84056985 -.00000124  00000+0  00000+0 0  9994
2 33376   0.0591 254.1650 0002822 234.2439   2.0042  1.00271843 65109
FM-5                    
1 35493U 09034A   26187.77146750 -.00000185  00000+0  00000+0 0  9994
2 35493   0.0414 265.3083 0001165  77.7507 133.2586  1.00271114 46845
INTELSAT 14 (IS-14)     
1 36097U 09064A   26187.85096990 -.00000258  00000+0  00000+0 0  9998
2 36097   0.0184 351.6032 0002428 118.0222  76.5631  1.00271545 60809
INTELSAT 15 (IS-15)     
1 36106U 09067A   26187.80546969 -.00000170  00000+0  00000+0 0  9996
2 36106   0.0079   5.9994 0002260 104.4370 189.4677  1.00271460 41423
DIRECTV 12              
1 36131U 09075A   26187.62563875 -.00000088  00000+0  00000+0 0  9996
2 36131   0.0383 184.4237 0000114 314.8614 267.8203  1.00268924 46743
INTELSAT 16 (IS-16)     
1 36397U 10006A   26187.84481654 -.00000230  00000+0  00000+0 0  9993
2 36397   0.0169 315.0873 0002475 173.1047  24.5633  1.00270016 59851
XM-5                    
1 37185U 10053A   26187.69453066 -.00000008  00000+0  00000+0 0  9993
2 37185   0.0663 268.2989 0001651 310.1090 201.1030  1.00269489 57673
INTELSAT 17 (IS-17)     
1 37238U 10065B   26187.87293007  .00000013  00000+0  00000+0 0  9997
2 37238   0.0074  70.5940 0002594  39.7696 194.7257  1.00272471 53446
INTELSAT 28 (IS-28)     
1 37392U 11016A   26187.71099740 -.00000211  00000+0  00000+0 0  9997
2 37392   1.8534  82.3902 0003753  27.7420  38.7679  1.00270512 53489
INTELSAT 18 (IS-18)     
1 37834U 11056A   26187.82427644  .00000068  00000+0  00000+0 0  9991
2 37834   0.0121 315.1819 0001876 160.9422 285.4064  1.00271417 54006
INTELSAT 22 (IS-22)     
1 38098U 12011A   26187.87414339  .00000000  00000+0  00000+0 0  9994
2 38098   0.0259  53.2434 0001774  69.2271 189.1551  1.00269463  7382
INTELSAT 19 (IS-19)     
1 38356U 12030A   26187.82150308 -.00000042  00000+0  00000+0 0  9997
2 38356   0.0012  35.3603 0003147  83.5476 267.6332  1.00271596 50643
INTELSAT 20 (IS-20)     
1 38740U 12043A   26187.80221769 -.00000009  00000+0  00000+0 0  9999
2 38740   0.0111  49.4354 0001502 132.4135 100.2112  1.00268375 50940
INTELSAT 21 (IS-21)     
1 38749U 12045A   26187.84836987 -.00000270  00000+0  00000+0 0  9998
2 38749   0.0147 328.6751 0001792 156.8930  46.6734  1.00270530 50720
